KUIPER-00053            
1 64513U 25134P   25274.50002315 -.00188228  00000+0 -11343-1 0  9993
2 64513  51.8997 209.6489 0004461  99.0756 164.8852 15.11207489  5837
KUIPER-00054            
1 64514U 25134Q   25274.50002315  .00007966  00000+0  33791-3 0  9994
2 64514  51.8778 208.2600 0006599 108.3702 121.6623 15.23980268  5028
KUIPER-00055            
1 64515U 25134R   25274.50002315 -.00920026  00000+0 -36190-1 0  9992
2 64515  51.8815 207.8699 0000965 129.7230 331.7003 15.27638631  5145
KUIPER-00056            
1 64516U 25134S   25274.50002315 -.01980727  00000+0 -12637+0 0  9996
2 64516  51.8818 210.3162 0004121 126.6823 232.1933 15.11981662  3574
KUIPER-00057            
1 64517U 25134T   25274.50002315 -.01681683  00000+0 -20534+0 0  9991
2 64517  51.8963 215.6617 0009586 113.4504  23.4404 14.86635206  5701
KUIPER-00058            
1 64518U 25134U   25274.50002315 -.01852365  00000+0 -13046+0 0  9999
2 64518  51.8831 211.3749 0006780 125.2244  71.6366 15.08144851  5562
KUIPER-00059            
1 64519U 25134V   25274.50002315 -.00889729  00000+0 -44904-1 0  9992
2 64519  51.8870 208.9003 0000282  58.0124 276.6704 15.19219273  3094
KUIPER-00060            
1 64520U 25134W   25274.50002315 -.00547845  00000+0 -29263-1 0  9995
2 64520  51.8888 208.9610 0003200 116.4889 123.5240 15.16858863  4670
